YUBILEINY (RS30)        
1 32953U 08025A   26064.28153501 -.00000040  00000+0 -35825-3 0  9991
2 32953  82.4985  60.0657 0019365 174.8578 185.2705 12.43175674806785
FENGYUN 3A              
1 32958U 08026A   26064.29468849  .00000161  00000+0  96918-4 0  9995
2 32958  98.6794   7.1251 0009786  69.6133 290.6093 14.19544776920666
HUANJING 1A (HJ-1A)     
1 33320U 08041A   26064.25163955  .00003016  00000+0  36974-3 0  9999
2 33320  97.6626  54.1646 0020501 117.2955 243.0350 14.83703443942990
HUANJING 1B (HJ-1B)     
1 33321U 08041B   26064.31055081  .00001348  00000+0  16993-3 0  9992
2 33321  97.6471  57.6965 0036699 161.9838 198.2687 14.83088759943016
SHIJIAN-6 03A (SJ-6 03A)
1 33408U 08053A   26064.33203461  .00012854  00000+0  67124-3 0  9996
2 33408  97.8536  94.0634 0011983  18.5111 341.6554 15.15995414947229
SHIJIAN-6 03B (SJ-6 03B)
1 33409U 08053B   26064.32019348  .00005644  00000+0  41308-3 0  9990
2 33409  97.8663  82.4760 0020318  35.0739 325.1819 15.03837125947136
CHUANGXIN 1-02 (CX-1-02)
1 33434U 08056B   26064.33248142  .00000325  00000+0  14233-3 0  9996
2 33434  98.6252  91.5825 0015448  85.8308 274.4640 14.30130101903772
STARS (KUKAI)           
1 33498U 09002G   26064.30056669  .00006552  00000+0  60601-3 0  9994
2 33498  98.1460   7.4965 0009196 144.6298 215.5533 14.94879935922957
KKS-1 (KISEKI)          
1 33499U 09002H   26064.21361899  .00002528  00000+0  31933-3 0  9994
2 33499  98.1191 345.0410 0006428 268.5613  91.4863 14.82809137920787
NOAA 19                 
1 33591U 09005A   26064.20491129  .00000082  00000+0  67385-4 0  9993
2 33591  98.9615 134.9683 0013064 328.0949  31.9431 14.13455863879795
UK-DMC 2                
1 35683U 09041C   26064.29687425  .00001495  00000+0  22521-3 0  9993
2 35683  97.8644 201.9181 0001085  91.5850 268.5484 14.75840430891246
METEOR-M 1              
1 35865U 09049A   26063.45913550  .00000181  00000+0  99617-4 0  9993
2 35865  98.7265  26.7560 0001192 239.6624 120.4436 14.23128887854356
OCEANSAT-2              
1 35931U 09051A   26064.25838431  .00000083  00000+0  82138-4 0  9994
2 35931  98.2273  61.5163 0017044 164.4026 195.7669 13.99636222864795
SWISSCUBE               
1 35932U 09051B   26064.23496379  .00001765  00000+0  35985-3 0  9999
2 35932  98.4103 330.2989 0006767 165.9945 194.1445 14.62245193873966
BEESAT-1                
1 35933U 09051C   26064.19149259  .00001486  00000+0  30945-3 0  9998
2 35933  98.4034 330.1037 0004998 176.8961 183.2271 14.61520944873994
ITUPSAT1                
1 35935U 09051E   26064.22887407  .00001364  00000+0  29277-3 0  9999
2 35935  98.4120 329.4408 0006957 192.5039 167.5990 14.60257017873566
